[{"OBJECT_NAME":"STARLINK-3326","OBJECT_ID":"2022-001AT","EPOCH":"2026-03-09T14:22:13.926720","MEAN_MOTION":15.08843961,"ECCENTRICITY":9.66e-5,"INCLINATION":53.2179,"RA_OF_ASC_NODE":179.5302,"ARG_OF_PERICENTER":98.2232,"MEAN_ANOMALY":261.8869,"EPHEMERIS_TYPE":0,"CLASSIFICATION_TYPE":"U","NORAD_CAT_ID":50844,"ELEMENT_SET_NO":999,"REV_AT_EPOCH":23025,"BSTAR":-9.2836e-5,"MEAN_MOTION_DOT":-1.765e-5,"MEAN_MOTION_DDOT":0},{"OBJECT_NAME":"OBJECT B","OBJECT_ID":"2023-069B","EPOCH":"2026-03-09T13:07:46.108416","MEAN_MOTION":15.09579619,"ECCENTRICITY":0.00116524,"INCLINATION":41.0081,"RA_OF_ASC_NODE":274.4606,"ARG_OF_PERICENTER":279.7432,"MEAN_ANOMALY":80.2064,"EPHEMERIS_TYPE":0,"CLASSIFICATION_TYPE":"U","NORAD_CAT_ID":56732,"ELEMENT_SET_NO":999,"REV_AT_EPOCH":15516,"BSTAR":0.00042419683,"MEAN_MOTION_DOT":6.772e-5,"MEAN_MOTION_DDOT":0}]
