STARLINK-3326           
1 50844U 22001AT  26068.59877230 -.00001765  00000+0 -92836-4 0  9991
2 50844  53.2179 179.5302 0000966  98.2232 261.8869 15.08843961230251
2023-069B               
1 56732U 23069B   26068.54706144  .00006772  00000+0  42420-3 0  9992
2 56732  41.0081 274.4606 0011652 279.7432  80.2064 15.09579619155167
